start=new Date('2023-03-14T00:00:00.000Z').valueOf();
sats=[{"ELEMENT_SET_NO":"999","MEAN_MOTION_DOT":"-0.00002543","EPHEMERIS_TYPE":"0","TLE_LINE2":"2 52471  53.2153 280.4280 0001104  75.1340 284.9774 15.08829815 47425","MEAN_MOTION_DDOT":"0.0000000000000","EPOCH":"2023-03-13T21:15:56.589696","CLASSIFICATION_TYPE":"U","PERIAPSIS":"539.013","MEAN_MOTION":"15.08829815","TLE_LINE1":"1 52471U 22049W   23072.88607164 -.00002543  00000-0 -14179-3 0  9991","GP_ID":"228033842","BSTAR":"-0.00014179000000","NORAD_CAT_ID":"52471","LAUNCH_DATE":"2022-05-06","OBJECT_NAME":"STARLINK-3862","RCS_SIZE":"LARGE","COUNTRY_CODE":"US","PERIOD":"95.438","OBJECT_TYPE":"PAYLOAD","DECAY_DATE":null,"OBJECT_ID":"2022-049W","TIME_SYSTEM":"UTC","ECCENTRICITY":"0.00011040","REV_AT_EPOCH":"4742","APOAPSIS":"540.540","SEMIMAJOR_AXIS":"6917.912","MEAN_ANOMALY":"284.9774","REF_FRAME":"TEME","SITE":"AFETR","ARG_OF_PERICENTER":"75.1340","RA_OF_ASC_NODE":"280.4280","MEAN_ELEMENT_THEORY":"SGP4","CENTER_NAME":"EARTH","INCLINATION":"53.2153","FILE":"3859631"},{"ECCENTRICITY":"0.00013170","REV_AT_EPOCH":"4729","APOAPSIS":"540.639","DECAY_DATE":null,"OBJECT_ID":"2022-049X","TIME_SYSTEM":"UTC","INCLINATION":"53.2155","FILE":"3859425","REF_FRAME":"TEME","SEMIMAJOR_AXIS":"6917.863","MEAN_ANOMALY":"250.8846","SITE":"AFETR","RA_OF_ASC_NODE":"284.3537","ARG_OF_PERICENTER":"109.2289","MEAN_ELEMENT_THEORY":"SGP4","CENTER_NAME":"EARTH","LAUNCH_DATE":"2022-05-06","OBJECT_TYPE":"PAYLOAD","OBJECT_NAME":"STARLINK-3881","COUNTRY_CODE":"US","RCS_SIZE":"LARGE","PERIOD":"95.437","MEAN_MOTION":"15.08845638","TLE_LINE1":"1 52472U 22049X   23072.00926944  .00003557  00000-0  24144-3 0  9993","PERIAPSIS":"538.817","GP_ID":"228004706","BSTAR":"0.00024144000000","NORAD_CAT_ID":"52472","EPHEMERIS_TYPE":"0","ELEMENT_SET_NO":"999","MEAN_MOTION_DOT":"0.00003557","MEAN_MOTION_DDOT":"0.0000000000000","EPOCH":"2023-03-13T00:13:20.879616","CLASSIFICATION_TYPE":"U","TLE_LINE2":"2 52472  53.2155 284.3537 0001317 109.2289 250.8846 15.08845638 47291"},{"INCLINATION":"53.2147","FILE":"3859425","RA_OF_ASC_NODE":"284.6207","ARG_OF_PERICENTER":"75.2630","MEAN_ELEMENT_THEORY":"SGP4","CENTER_NAME":"EARTH","SEMIMAJOR_AXIS":"6917.830","MEAN_ANOMALY":"284.8462","REF_FRAME":"TEME","SITE":"AFETR","APOAPSIS":"540.314","ECCENTRICITY":"0.00008950","REV_AT_EPOCH":"4728","TIME_SYSTEM":"UTC","OBJECT_ID":"2022-049Y","DECAY_DATE":null,"OBJECT_TYPE":"PAYLOAD","PERIOD":"95.437","OBJECT_NAME":"STARLINK-3879","COUNTRY_CODE":"US","RCS_SIZE":"LARGE","LAUNCH_DATE":"2022-05-06","NORAD_CAT_ID":"52473","BSTAR":"0.00075185000000","GP_ID":"228004961","MEAN_MOTION":"15.08856594","TLE_LINE1":"1 52473U 22049Y   23071.95038556  .00011703  00000-0  75185-3 0  9993","PERIAPSIS":"539.076","CLASSIFICATION_TYPE":"U","EPOCH":"2023-03-12T22:48:33.312384","MEAN_MOTION_DDOT":"0.0000000000000","TLE_LINE2":"2 52473  53.2147 284.6207 0000895  75.2630 284.8462 15.08856594 47285","EPHEMERIS_TYPE":"0","ELEMENT_SET_NO":"999","MEAN_MOTION_DOT":"0.00011703"},{"LAUNCH_DATE":"2022-05-06","OBJECT_TYPE":"PAYLOAD","PERIOD":"95.437","COUNTRY_CODE":"US","RCS_SIZE":"LARGE","OBJECT_NAME":"STARLINK-3855","APOAPSIS":"540.416","REV_AT_EPOCH":"4753","ECCENTRICITY":"0.00009740","TIME_SYSTEM":"UTC","OBJECT_ID":"2022-049Z","DECAY_DATE":null,"FILE":"3859631","INCLINATION":"53.2166","CENTER_NAME":"EARTH","RA_OF_ASC_NODE":"271.2893","ARG_OF_PERICENTER":"112.6332","MEAN_ELEMENT_THEORY":"SGP4","SITE":"AFETR","MEAN_ANOMALY":"247.4763","SEMIMAJOR_AXIS":"6917.877","REF_FRAME":"TEME","EPHEMERIS_TYPE":"0","MEAN_MOTION_DOT":"0.00000472","ELEMENT_SET_NO":"999","CLASSIFICATION_TYPE":"U","EPOCH":"2023-03-13T16:35:01.637088","MEAN_MOTION_DDOT":"0.0000000000000","TLE_LINE2":"2 52474  53.2166 271.2893 0000974 112.6332 247.4763 15.08841057 47538","TLE_LINE1":"1 52474U 22049Z   23072.69099117  .00000472  00000-0  47748-4 0  9992","MEAN_MOTION":"15.08841057","PERIAPSIS":"539.068","NORAD_CAT_ID":"52474","GP_ID":"228034594","BSTAR":"0.00004774800000"},{"LAUNCH_DATE":"2022-05-06","PERIOD":"95.437","RCS_SIZE":"LARGE","COUNTRY_CODE":"US","OBJECT_NAME":"STARLINK-3882","OBJECT_TYPE":"PAYLOAD","TIME_SYSTEM":"UTC","DECAY_DATE":null,"OBJECT_ID":"2022-049AA","APOAPSIS":"540.842","REV_AT_EPOCH":"4729","ECCENTRICITY":"0.00016290","CENTER_NAME":"EARTH","MEAN_ELEMENT_THEORY":"SGP4","ARG_OF_PERICENTER":"83.5559","RA_OF_ASC_NODE":"284.3498","SITE":"AFETR","SEMIMAJOR_AXIS":"6917.850","MEAN_ANOMALY":"276.5618","REF_FRAME":"TEME","FILE":"3859425","INCLINATION":"53.2157","MEAN_MOTION_DOT":"0.00007559","ELEMENT_SET_NO":"999","EPHEMERIS_TYPE":"0","TLE_LINE2":"2 52475  53.2157 284.3498 0001629  83.5559 276.5618 15.08849790 47297","CLASSIFICATION_TYPE":"U","EPOCH":"2023-03-13T00:14:43.736352","MEAN_MOTION_DDOT":"0.0000000000000","PERIAPSIS":"538.589","TLE_LINE1":"1 52475U 22049AA  23072.01022843  .00007559  00000-0  49235-3 0  9996","MEAN_MOTION":"15.08849790","NORAD_CAT_ID":"52475","BSTAR":"0.00049235000000","GP_ID":"228003465"},{"ELEMENT_SET_NO":"999","MEAN_MOTION_DOT":"-0.00001172","EPHEMERIS_TYPE":"0","TLE_LINE2":"2 52476  53.2146 271.9110 0001076  79.0017 281.1096 15.08846677 48759","MEAN_MOTION_DDOT":"0.0000000000000","CLASSIFICATION_TYPE":"U","EPOCH":"2023-03-13T13:20:19.716000","PERIAPSIS":"538.981","MEAN_MOTION":"15.08846677","TLE_LINE1":"1 52476U 22049AB  23072.55578375 -.00001172  00000-0 -55547-4 0  9993","BSTAR":"-0.00005554700000","GP_ID":"228004208","NORAD_CAT_ID":"52476","LAUNCH_DATE":"2022-05-06","OBJECT_NAME":"STARLINK-3835","COUNTRY_CODE":"US","RCS_SIZE":"LARGE","PERIOD":"95.437","OBJECT_TYPE":"PAYLOAD","OBJECT_ID":"2022-049AB","DECAY_DATE":null,"TIME_SYSTEM":"UTC","ECCENTRICITY":"0.00010760","REV_AT_EPOCH":"4875","APOAPSIS":"540.469","SEMIMAJOR_AXIS":"6917.860","MEAN_ANOMALY":"281.1096","REF_FRAME":"TEME","SITE":"AFETR","ARG_OF_PERICENTER":"79.0017","RA_OF_ASC_NODE":"271.9110","MEAN_ELEMENT_THEORY":"SGP4","CENTER_NAME":"EARTH","INCLINATION":"53.2146","FILE":"3859425"},{"TLE_LINE1":"1 52477U 22049AC  23072.62842902 -.00001193  00000-0 -56872-4 0  9997","MEAN_MOTION":"15.08837537","PERIAPSIS":"538.806","NORAD_CAT_ID":"52477","GP_ID":"228034344","BSTAR":"-0.00005687200000","EPHEMERIS_TYPE":"0","MEAN_MOTION_DOT":"-0.00001193","ELEMENT_SET_NO":"999","EPOCH":"2023-03-13T15:04:56.267328","CLASSIFICATION_TYPE":"U","MEAN_MOTION_DDOT":"0.0000000000000","TLE_LINE2":"2 52477  53.2139 271.5690 0001369 139.4917 220.6177 15.08837537 48760","APOAPSIS":"540.700","REV_AT_EPOCH":"4876","ECCENTRICITY":"0.00013690","TIME_SYSTEM":"UTC","DECAY_DATE":null,"OBJECT_ID":"2022-049AC","FILE":"3859631","INCLINATION":"53.2139","CENTER_NAME":"EARTH","ARG_OF_PERICENTER":"139.4917","RA_OF_ASC_NODE":"271.5690","MEAN_ELEMENT_THEORY":"SGP4","SITE":"AFETR","SEMIMAJOR_AXIS":"6917.888","REF_FRAME":"TEME","MEAN_ANOMALY":"220.6177","LAUNCH_DATE":"2022-05-06","OBJECT_TYPE":"PAYLOAD","PERIOD":"95.438","RCS_SIZE":"LARGE","COUNTRY_CODE":"US","OBJECT_NAME":"STARLINK-3860"},{"GP_ID":"228010166","BSTAR":"0.00026342000000","NORAD_CAT_ID":"52478","TLE_LINE1":"1 52478U 22049AD  23072.59807153  .00003906  00000-0  26342-3 0  9993","MEAN_MOTION":"15.08833120","PERIAPSIS":"538.915","MEAN_MOTION_DDOT":"0.0000000000000","EPOCH":"2023-03-13T14:21:13.380192","CLASSIFICATION_TYPE":"U","TLE_LINE2":"2 52478  53.2151 281.6993 0001231 128.5421 231.5681 15.08833120 47540","EPHEMERIS_TYPE":"0","MEAN_MOTION_DOT":"0.00003906","ELEMENT_SET_NO":"999","INCLINATION":"53.2151","FILE":"3859551","SITE":"AFETR","REF_FRAME":"TEME","SEMIMAJOR_AXIS":"6917.901","MEAN_ANOMALY":"231.5681","CENTER_NAME":"EARTH","RA_OF_ASC_NODE":"281.6993","ARG_OF_PERICENTER":"128.5421","MEAN_ELEMENT_THEORY":"SGP4","REV_AT_EPOCH":"4754","ECCENTRICITY":"0.00012310","APOAPSIS":"540.618","OBJECT_ID":"2022-049AD","DECAY_DATE":null,"TIME_SYSTEM":"UTC","OBJECT_TYPE":"PAYLOAD","COUNTRY_CODE":"US","RCS_SIZE":"LARGE","OBJECT_NAME":"STARLINK-3825","PERIOD":"95.438","LAUNCH_DATE":"2022-05-06"},{"ELEMENT_SET_NO":"999","MEAN_MOTION_DOT":"0.00018451","EPHEMERIS_TYPE":"0","TLE_LINE2":"2 52479  53.2145 270.4512 0001114 106.4274 253.6841 15.08823148 48800","EPOCH":"2023-03-13T21:05:17.099232","CLASSIFICATION_TYPE":"U","MEAN_MOTION_DDOT":"0.0000000000000","PERIAPSIS":"539.026","MEAN_MOTION":"15.08823148","TLE_LINE1":"1 52479U 22049AE  23072.87867013  .00018451  00000-0  11749-2 0  9991","NORAD_CAT_ID":"52479","GP_ID":"228033843","BSTAR":"0.00117490000000","LAUNCH_DATE":"2022-05-06","PERIOD":"95.439","OBJECT_NAME":"STARLINK-3878","COUNTRY_CODE":"US","RCS_SIZE":"LARGE","OBJECT_TYPE":"PAYLOAD","TIME_SYSTEM":"UTC","DECAY_DATE":null,"OBJECT_ID":"2022-049AE","APOAPSIS":"540.568","ECCENTRICITY":"0.00011140","REV_AT_EPOCH":"4880","ARG_OF_PERICENTER":"106.4274","RA_OF_ASC_NODE":"270.4512","MEAN_ELEMENT_THEORY":"SGP4","CENTER_NAME":"EARTH","SEMIMAJOR_AXIS":"6917.932","REF_FRAME":"TEME","MEAN_ANOMALY":"253.6841","SITE":"AFETR","FILE":"3859631","INCLINATION":"53.2145"},{"LAUNCH_DATE":"2022-05-06","OBJECT_TYPE":"PAYLOAD","OBJECT_NAME":"STARLINK-3839","RCS_SIZE":"LARGE","COUNTRY_CODE":"US","PERIOD":"95.437","ECCENTRICITY":"0.00009560","REV_AT_EPOCH":"4754","APOAPSIS":"540.404","DECAY_DATE":null,"OBJECT_ID":"2022-049AF","TIME_SYSTEM":"UTC","FILE":"3859551","INCLINATION":"53.2139","REF_FRAME":"TEME","SEMIMAJOR_AXIS":"6917.878","MEAN_ANOMALY":"283.0507","SITE":"AFETR","RA_OF_ASC_NODE":"281.7308","ARG_OF_PERICENTER":"77.0591","MEAN_ELEMENT_THEORY":"SGP4","CENTER_NAME":"EARTH","EPHEMERIS_TYPE":"0","ELEMENT_SET_NO":"999","MEAN_MOTION_DOT":"0.00001165","MEAN_MOTION_DDOT":"0.0000000000000","EPOCH":"2023-03-13T14:15:55.366848","CLASSIFICATION_TYPE":"U","TLE_LINE2":"2 52480  53.2139 281.7308 0000956  77.0591 283.0507 15.08840891 47541","MEAN_MOTION":"15.08840891","TLE_LINE1":"1 52480U 22049AF  23072.59439082  .00001165  00000-0  91263-4 0  9998","PERIAPSIS":"539.081","BSTAR":"0.00009126300000","GP_ID":"228010174","NORAD_CAT_ID":"52480"}];
